{
  "type": "FeatureCollection",
  "features": [
    {
      "type": "Feature",
      "properties": {
        "norad_id": 25730,
        "name": "FENGYUN 1C",
        "group": "fengyun-1c-debris",
        "lat": -49.98135762801898,
        "lon": -146.664055626483,
        "alt_km": 818.0581780396715,
        "timestamp": "2025-12-04T03:47:54.814186+00:00",
        "meta_object_name": "FENGYUN 1C",
        "meta_object_id": "1999-025A",
        "meta_epoch": "2025-12-03T16:36:59.967936",
        "meta_mean_motion": 14.25969722,
        "meta_eccentricity": 0.0010967,
        "meta_inclination": 98.8852,
        "meta_ra_of_asc_node": 43.6009,
        "meta_arg_of_pericenter": 92.6399,
        "meta_mean_anomaly": 267.6036,
        "meta_ephemeris_type": 0,
        "meta_classification_type": "U",
        "meta_norad_cat_id": 25730,
        "meta_element_set_no": 999,
        "meta_rev_at_epoch": 37008,
        "meta_bstar": 0.0016581,
        "meta_mean_motion_dot": 3.913e-05,
        "meta_mean_motion_ddot": 0,
        "tle_line1": "1 25730U 99025A   25337.69236074  .00003913  00000+0  16581-2 0  9997",
        "tle_line2": "2 25730  98.8852  43.6009 0010967  92.6399 267.6036 14.25969722370087"
      },
      "geometry": {
        "type": "Point",
        "coordinates": [
          -146.664055626483,
          -49.98135762801898
        ]
      }
    },
    {
      "type": "Feature",
      "properties": {
        "norad_id": 29733,
        "name": "FENGYUN 1C DEB",
        "group": "fengyun-1c-debris",
        "lat": -43.36127351518322,
        "lon": -153.30498690467238,
        "alt_km": 847.0679508156481,
        "timestamp": "2025-12-04T03:47:54.814206+00:00",
        "meta_object_name": "FENGYUN 1C DEB",
        "meta_object_id": "1999-025X",
        "meta_epoch": "2025-12-03T02:41:59.142912",
        "meta_mean_motion": 12.96434846,
        "meta_eccentricity": 0.05693395,
        "meta_inclination": 99.2254,
        "meta_ra_of_asc_node": 34.6363,
        "meta_arg_of_pericenter": 224.1142,
        "meta_mean_anomaly": 161.1885,
        "meta_ephemeris_type": 0,
        "meta_classification_type": "U",
        "meta_norad_cat_id": 29733,
        "meta_element_set_no": 999,
        "meta_rev_at_epoch": 88995,
        "meta_bstar": 0.0023125771,
        "meta_mean_motion_dot": 1.358e-05,
        "meta_mean_motion_ddot": 0,
        "tle_line1": "1 29733U 99025X   25337.11249008  .00001358  00000+0  23126-2 0  9996",
        "tle_line2": "2 29733  99.2254  34.6363 0569339 224.1142 161.1885 12.96434846889959"
      },
      "geometry": {
        "type": "Point",
        "coordinates": [
          -153.30498690467238,
          -43.36127351518322
        ]
      }
    },
    {
      "type": "Feature",
      "properties": {
        "norad_id": 29734,
        "name": "FENGYUN 1C DEB",
        "group": "fengyun-1c-debris",
        "lat": -24.639729449414006,
        "lon": 85.21985929207834,
        "alt_km": 1770.3355411879866,
        "timestamp": "2025-12-04T03:47:54.814219+00:00",
        "meta_object_name": "FENGYUN 1C DEB",
        "meta_object_id": "1999-025Y",
        "meta_epoch": "2025-12-03T17:44:10.952160",
        "meta_mean_motion": 12.91217266,
        "meta_eccentricity": 0.0614467,
        "meta_inclination": 99.1696,
        "meta_ra_of_asc_node": 269.1178,
        "meta_arg_of_pericenter": 32.2973,
        "meta_mean_anomaly": 23.8418,
        "meta_ephemeris_type": 0,
        "meta_classification_type": "U",
        "meta_norad_cat_id": 29734,
        "meta_element_set_no": 999,
        "meta_rev_at_epoch": 88432,
        "meta_bstar": 0.00656,
        "meta_mean_motion_dot": 4.037e-05,
        "meta_mean_motion_ddot": 0,
        "tle_line1": "1 29734U 99025Y   25337.73901565  .00004037  00000+0  65600-2 0  9998",
        "tle_line2": "2 29734  99.1696 269.1178 0614467  32.2973  23.8418 12.91217266884323"
      },
      "geometry": {
        "type": "Point",
        "coordinates": [
          85.21985929207834,
          -24.639729449414006
        ]
      }
    },
    {
      "type": "Feature",
      "properties": {
        "norad_id": 29735,
        "name": "FENGYUN 1C DEB",
        "group": "fengyun-1c-debris",
        "lat": -80.60363733336749,
        "lon": -14.521867990533547,
        "alt_km": 1198.016021252407,
        "timestamp": "2025-12-04T03:47:54.814243+00:00",
        "meta_object_name": "FENGYUN 1C DEB",
        "meta_object_id": "1999-025Z",
        "meta_epoch": "2025-12-03T11:20:58.674048",
        "meta_mean_motion": 12.7502722,
        "meta_eccentricity": 0.069798,
        "meta_inclination": 99.39,
        "meta_ra_of_asc_node": 253.9741,
        "meta_arg_of_pericenter": 195.9566,
        "meta_mean_anomaly": 161.8492,
        "meta_ephemeris_type": 0,
        "meta_classification_type": "U",
        "meta_norad_cat_id": 29735,
        "meta_element_set_no": 999,
        "meta_rev_at_epoch": 87297,
        "meta_bstar": 0.0011843,
        "meta_mean_motion_dot": 6.57e-06,
        "meta_mean_motion_ddot": 0,
        "tle_line1": "1 29735U 99025Z   25337.47290132  .00000657  00000+0  11843-2 0  9995",
        "tle_line2": "2 29735  99.3900 253.9741 0697980 195.9566 161.8492 12.75027220872971"
      },
      "geometry": {
        "type": "Point",
        "coordinates": [
          -14.521867990533547,
          -80.60363733336749
        ]
      }
    },
    {
      "type": "Feature",
      "properties": {
        "norad_id": 29736,
        "name": "FENGYUN 1C DEB",
        "group": "fengyun-1c-debris",
        "lat": -30.384162971291293,
        "lon": -26.3787638820565,
        "alt_km": 874.6991025301822,
        "timestamp": "2025-12-04T03:47:54.814258+00:00",
        "meta_object_name": "FENGYUN 1C DEB",
        "meta_object_id": "1999-025AA",
        "meta_epoch": "2025-12-01T23:58:11.443584",
        "meta_mean_motion": 12.57457881,
        "meta_eccentricity": 0.07263731,
        "meta_inclination": 99.4012,
        "meta_ra_of_asc_node": 157.4503,
        "meta_arg_of_pericenter": 221.7005,
        "meta_mean_anomaly": 298.6638,
        "meta_ephemeris_type": 0,
        "meta_classification_type": "U",
        "meta_norad_cat_id": 29736,
        "meta_element_set_no": 999,
        "meta_rev_at_epoch": 86409,
        "meta_bstar": 0.00220533,
        "meta_mean_motion_dot": 9.74e-06,
        "meta_mean_motion_ddot": 0,
        "tle_line1": "1 29736U 99025AA  25335.99874356  .00000974  00000+0  22053-2 0  9994",
        "tle_line2": "2 29736  99.4012 157.4503 0726373 221.7005 298.6638 12.57457881864091"
      },
      "geometry": {
        "type": "Point",
        "coordinates": [
          -26.3787638820565,
          -30.384162971291293
        ]
      }
    },
    {
      "type": "Feature",
      "properties": {
        "norad_id": 29737,
        "name": "FENGYUN 1C DEB",
        "group": "fengyun-1c-debris",
        "lat": 44.981191261048565,
        "lon": -75.08006647186775,
        "alt_km": 1559.2047425970522,
        "timestamp": "2025-12-04T03:47:54.814270+00:00",
        "meta_object_name": "FENGYUN 1C DEB",
        "meta_object_id": "1999-025AB",
        "meta_epoch": "2025-12-02T08:41:33.064800",
        "meta_mean_motion": 12.6562936,
        "meta_eccentricity": 0.06942754,
        "meta_inclination": 99.5814,
        "meta_ra_of_asc_node": 293.1372,
        "meta_arg_of_pericenter": 161.1217,
        "meta_mean_anomaly": 352.73,
        "meta_ephemeris_type": 0,
        "meta_classification_type": "U",
        "meta_norad_cat_id": 29737,
        "meta_element_set_no": 999,
        "meta_rev_at_epoch": 86737,
        "meta_bstar": 0.0013678776,
        "meta_mean_motion_dot": 6.32e-06,
        "meta_mean_motion_ddot": 0,
        "tle_line1": "1 29737U 99025AB  25336.36218825  .00000632  00000+0  13679-2 0  9995",
        "tle_line2": "2 29737  99.5814 293.1372 0694275 161.1217 352.7300 12.65629360867376"
      },
      "geometry": {
        "type": "Point",
        "coordinates": [
          -75.08006647186775,
          44.981191261048565
        ]
      }
    },
    {
      "type": "Feature",
      "properties": {
        "norad_id": 29738,
        "name": "FENGYUN 1C DEB",
        "group": "fengyun-1c-debris",
        "lat": -33.543338963357414,
        "lon": -39.672016061654546,
        "alt_km": 1473.7769224608064,
        "timestamp": "2025-12-04T03:47:54.814281+00:00",
        "meta_object_name": "FENGYUN 1C DEB",
        "meta_object_id": "1999-025AC",
        "meta_epoch": "2025-12-03T17:03:29.884320",
        "meta_mean_motion": 12.60986655,
        "meta_eccentricity": 0.0863447,
        "meta_inclination": 99.4117,
        "meta_ra_of_asc_node": 146.2747,
        "meta_arg_of_pericenter": 314.0324,
        "meta_mean_anomaly": 39.2665,
        "meta_ephemeris_type": 0,
        "meta_classification_type": "U",
        "meta_norad_cat_id": 29738,
        "meta_element_set_no": 999,
        "meta_rev_at_epoch": 86103,
        "meta_bstar": 0.002175,
        "meta_mean_motion_dot": 1.612e-05,
        "meta_mean_motion_ddot": 0,
        "tle_line1": "1 29738U 99025AC  25337.71076255  .00001612  00000+0  21750-2 0  9993",
        "tle_line2": "2 29738  99.4117 146.2747 0863447 314.0324  39.2665 12.60986655861039"
      },
      "geometry": {
        "type": "Point",
        "coordinates": [
          -39.672016061654546,
          -33.543338963357414
        ]
      }
    }
  ]
}